line1,line2,validFromUtcTime
1 00000U 00000E   26001.00000000  .00000000  00000-0  27772-4 0    01,2 00000  88.8590 105.3338 0010039 270.1110  82.3535 13.55299642    00,2026-01-01T00:00:00Z
1 00000U 00000E   26002.00000000  .00000000  00000-0  27772-4 0    02,2 00000  88.8590 105.2178 0010039 267.2013 281.4307 13.55299680    01,2026-01-02T00:00:00Z
